SARSAT 7 (NOAA 15)      
1 25338U 98030A   22328.51995257  .00000142  00000+0  77428-4 0  9999
2 25338  98.6293 355.8541 0010285 185.2176 174.8898 14.26199742275832
GPS BIIR-08             
1 27663U 03005A   22328.54611708  .00000000  00000+0  00000+0 0  9999
2 27663  55.4099 266.7010 0129054  41.6321 126.2380  2.00555049145224
GPS BIIR-11             
1 28190U 04009A   22328.34524591 -.00000045  00000+0  00000+0 0  9991
2 28190  55.9023 327.7263 0088310 127.9016  49.3856  2.00556567136856
GPS BIIR-13             
1 28474U 04045A   22328.53628524 -.00000068  00000+0  00000+0 0  9993
2 28474  55.3967  17.0353 0202579 282.0123 245.4719  2.00561219132345
SARSAT 10 (NOAA 18)     
1 28654U 05018A   22328.47657466  .00000193  00000+0  12813-3 0  9991
2 28654  98.9340  38.6637 0013535 236.7744 123.2131 14.12811452902668
GPS BIIR-14M            
1 28874U 05038A   22328.06741824 -.00000043  00000+0  00000+0 0  9990
2 28874  55.9623 325.1778 0140847 276.5319  89.3412  2.00565119125746
METEOSAT-9 (MSG-2)      
1 28912U 05049B   22327.88174639  .00000147  00000+0  00000+0 0  9992
2 28912   6.3798  65.2267 0001235 183.6401 177.0507  1.00271128 61993
GOES 13                 
1 29155U 06018A   22328.40743958  .00000059  00000+0  00000+0 0  9996
2 29155   0.9798  93.9103 0006509 142.0645  35.3725  1.00271401 30334
GPS BIIR-16M            
1 29601U 06052A   22328.12687452 -.00000001  00000+0  00000+0 0  9993
2 29601  55.4219 265.6627 0084301  75.0929 285.8427  2.00559611117316
GPS BIIR-17M            
1 32260U 07047A   22328.43007952  .00000073  00000+0  00000+0 0  9996
2 32260  53.3619 133.9117 0145279  66.1879 295.3353  2.00566466110728
GPS BIIR-18M            
1 32384U 07062A   22328.49224252 -.00000043  00000+0  00000+0 0  9998
2 32384  56.0861 325.9433 0019802 147.1378  25.3183  2.00570480109422
SARSAT 12 (NOAA 19)     
1 33591U 09005A   22328.56705302  .00000157  00000+0  10961-3 0  9992
2 33591  99.1301   5.9361 0014829  98.2865 261.9988 14.12642018711058
GOES 14                 
1 35491U 09033A   22328.54769354 -.00000073  00000+0  00000+0 0  9996
2 35491   0.2153 263.6291 0018062 318.2192 294.6315  1.00271609 49062
GOES 15                 
1 36411U 10008A   22328.53363604  .00000074  00000+0  00000+0 0  9990
2 36411   0.1736 281.8060 0003285 273.8436 291.8310  1.00277637 46625
GPS BIIF-2              
1 37753U 11036A   22328.01361038 -.00000065  00000+0  00000+0 0  9995
2 37753  56.6678  22.5007 0118549  53.2525 282.4323  2.00566146 83174
GSAT0101 (GALILEO-PFM)  
1 37846U 11060A   22328.39000283 -.00000069  00000+0  00000+0 0  9992
2 37846  57.0467  16.9949 0001399 319.0143  41.0455  1.70474746 68946
GSAT0102 (GALILEO-FM2)  
1 37847U 11060B   22327.33089440 -.00000068  00000+0  00000+0 0  9997
2 37847  57.0468  17.0234 0003321 299.3910 177.5465  1.70475198 68933
LUCH 5A                 
1 37951U 11074B   22328.60414821 -.00000029  00000+0  00000+0 0  9991
2 37951   5.4172  94.6565 0002601 129.9329 223.2916  1.00271208 40140
METEOSAT-10 (MSG-3)     
1 38552U 12035B   22328.30327310  .00000082  00000+0  00000+0 0  9998
2 38552   1.7828  49.0682 0001611 136.6810 356.2463  1.00271098 37810
SARSAT 13 (METOP-B)     
1 38771U 12049A   22328.47923709  .00000164  00000+0  95104-4 0  9993
2 38771  98.7097  25.9652 0000467  90.9892 333.9933 14.21478150528473
GPS BIIF-3              
1 38833U 12053A   22328.03151993  .00000087  00000+0  00000+0 0  9997
2 38833  53.5183 196.8194 0132839  48.7995 312.4445  2.00563659 73344
GSAT0103 (GALILEO-FM3)  
1 38857U 12055A   22327.84223432  .00000093  00000+0  00000+0 0  9998
2 38857  55.1854 137.3155 0002064 227.7914 132.2042  1.70473582 62829
GSAT0104 (GALILEO-FM4)  
1 38858U 12055B   22327.22551900  .00000097  00000+0  00000+0 0  9999
2 38858  55.1859 137.3340 0001740 144.3193 215.7107  1.70473863 62814
GPS BIIF-4              
1 39166U 13023A   22328.38825844 -.00000042  00000+0  00000+0 0  9998
2 39166  55.5844 321.4751 0106781  38.1208 322.6398  2.00565125 69796
INSAT-3D                
1 39216U 13038B   22328.52618931 -.00000136  00000+0  00000+0 0  9997
2 39216   0.0334 267.6567 0001853 327.0328 100.2949  1.00270763 34260
GPS BIIF-5              
1 39533U 14008A   22327.89289314  .00000082  00000+0  00000+0 0  9994
2 39533  53.6094 202.3488 0060494 209.1392 150.6242  2.00562407 63586
LUCH 5V                 
1 39727U 14023A   22328.44295782 -.00000248  00000+0  00000+0 0  9999
2 39727   1.8803  76.8822 0003092 186.1321  54.5555  1.00267282 31314
GPS BIIF-6              
1 39741U 14026A   22328.17198395 -.00000065  00000+0  00000+0 0  9997
2 39741  56.6266  22.0197 0028594 304.6173  55.1778  2.00577135 62449
GPS BIIF-7              
1 40105U 14045A   22328.25992523  .00000086  00000+0  00000+0 0  9990
2 40105  54.7298 140.4221 0024351 112.6099 247.6688  2.00557951 59980
GSAT0201 (GALILEO 5)    
1 40128U 14050A   22328.29188973 -.00000066  00000+0  00000+0 0  9990
2 40128  50.1723 325.9111 1616145 129.8443 245.5686  1.85519296 54182
GSAT0202 (GALILEO 6)    
1 40129U 14050B   22326.93533728 -.00000065  00000+0  00000+0 0  9991
2 40129  50.1964 325.0302 1613499 130.6056 244.6279  1.85520030 56326
GPS BIIF-8              
1 40294U 14068A   22327.62988786 -.00000016  00000+0  00000+0 0  9994
2 40294  55.9418  81.6559 0042343  58.6511 301.7445  2.00552282 59104
GLONASS-K 2             
1 40315U 14075A   22328.27253387  .00000042  00000+0  00000+0 0  9998
2 40315  63.6673 235.5781 0017942 209.2151 325.5614  2.13101366 62131
GPS BIIF-9              
1 40534U 15013A   22328.26951022  .00000006  00000+0  00000+0 0  9994
2 40534  53.6095 258.0726 0074260  21.3635 338.9617  2.00572132 55734
GSAT0203 (GALILEO 7)    
1 40544U 15017A   22327.58293036 -.00000069  00000+0  00000+0 0  9997
2 40544  56.8416  17.0283 0004810 248.3786 111.6402  1.70475976 47014
GSAT0204 (GALILEO 8)    
1 40545U 15017B   22326.66287729 -.00000068  00000+0  00000+0 0  9997
2 40545  56.8473  17.0665 0004705 235.9316 124.0929  1.70475601 10046
GPS BIIF-10             
1 40730U 15033A   22327.92887517 -.00000042  00000+0  00000+0 0  9994
2 40730  55.0794 320.2456 0078081   7.9508 352.1805  2.00569791 53899
METEOSAT-11 (MSG-4)     
1 40732U 15034A   22328.28056953  .00000016  00000+0  00000+0 0  9999
2 40732   0.4888 348.1807 0000798 138.1462  37.9932  1.00268573 26975
GSAT0205 (GALILEO 9)    
1 40889U 15045A   22328.19027740 -.00000004  00000+0  00000+0 0  9994
2 40889  55.5252 257.5516 0005230   6.5509 353.4693  1.70472802 44834
GSAT0206 (GALILEO 10)   
1 40890U 15045B   22327.23783968 -.00000007  00000+0  00000+0 0  9994
2 40890  55.5249 257.5736 0003780 354.4751   5.5280  1.70472827 44843
GPS BIIF-11             
1 41019U 15062A   22327.98065300 -.00000017  00000+0  00000+0 0  9993
2 41019  55.9291  81.4879 0083629 218.4530 140.9338  2.00562378 51733
ELEKTRO-L 2             
1 41105U 15074A   22328.42116660 -.00000095  00000+0  00000+0 0  9994
2 41105   3.3871  86.2222 0002941 141.8691 332.4422  1.00270990 25479
GSAT0209 (GALILEO 12)   
1 41174U 15079A   22327.99787337  .00000091  00000+0  00000+0 0  9996
2 41174  55.2027 137.0160 0001698 341.8477  18.1572  1.70474434 42594
GSAT0208 (GALILEO 11)   
1 41175U 15079B   22327.63080230  .00000094  00000+0  00000+0 0  9999
2 41175  55.2004 137.0244 0001118 359.7361   0.2780  1.70474356 43003
GPS BIIF-12             
1 41328U 16007A   22327.56914812  .00000094  00000+0  00000+0 0  9995
2 41328  54.9424 141.1595 0064138 229.7139 129.7510  2.00563226 49733
GSAT0211 (GALILEO 14)   
1 41549U 16030A   22327.16349456 -.00000007  00000+0  00000+0 0  9993
2 41549  55.6713 257.5254 0004722 333.1356  26.8468  1.70472876 40472
GSAT0210 (GALILEO 13)   
1 41550U 16030B   22328.04243320 -.00000004  00000+0  00000+0 0  9993
2 41550  55.6699 257.5027 0003747 306.6809  53.2971  1.70474473 40488
INSAT-3DR               
1 41752U 16054A   22328.41854764 -.00000057  00000+0  00000+0 0  9992
2 41752   0.1269  94.3458 0013592 171.9627  21.7700  1.00272033 22778
GSAT0207 (GALILEO 15)   
1 41859U 16069A   22327.11879246  .00000097  00000+0  00000+0 0  9997
2 41859  54.8637 137.1821 0001499 304.7699  55.2350  1.70474357 37206
GSAT0212 (GALILEO 16)   
1 41860U 16069B   22328.14546205  .00000089  00000+0  00000+0 0  9990
2 41860  54.8615 137.1511 0001443  32.4303 327.5887  1.70473052 37476
GSAT0213 (GALILEO 17)   
1 41861U 16069C   22327.92412665  .00000091  00000+0  00000+0 0  9991
2 41861  54.8624 137.1627 0001737 242.6323 117.3621  1.70473165 37339
GSAT0214 (GALILEO 18)   
1 41862U 16069D   22328.07130584  .00000090  00000+0  00000+0 0  9995
2 41862  54.8623 137.1530 0000849 224.5787 135.4254  1.70473140 37468
GOES 16                 
1 41866U 16071A   22328.48078741 -.00000228  00000+0  00000+0 0  9997
2 41866   0.0488 262.4676 0000549  24.3351 234.5315  1.00270469 22068
GSAT-17                 
1 42815U 17040B   22328.44269633 -.00000238  00000+0  00000+0 0  9998
2 42815   0.0891  95.5058 0006275 159.8790  60.8965  1.00271241 19744
GSAT0215 (GALILEO 19)   
1 43055U 17079A   22327.97461954 -.00000004  00000+0  00000+0 0  9995
2 43055  55.6467 257.3333 0003097 304.0549  55.9280  1.70473553 30807
GSAT0216 (GALILEO 20)   
1 43056U 17079B   22326.50695889 -.00000009  00000+0  00000+0 0  9995
2 43056  55.6484 257.3733 0004750 296.6368  63.3183  1.70473702 30792
GSAT0217 (GALILEO 21)   
1 43057U 17079C   22326.14065103 -.00000010  00000+0  00000+0 0  9998
2 43057  55.6466 257.3830 0004562 308.2573  51.7037  1.70473685 30777
GSAT0218 (GALILEO 22)   
1 43058U 17079D   22328.12046106 -.00000004  00000+0  00000+0 0  9994
2 43058  55.6449 257.3260 0005024 292.1611  67.7990  1.70473650 30838
GOES 17                 
1 43226U 18022A   22328.52790541  .00000118  00000+0  00000+0 0  9998
2 43226   0.0061  18.9553 0000285 195.3538 261.8891  1.00271476 17399
GSAT0221 (GALILEO 25)   
1 43564U 18060A   22326.84598621 -.00000068  00000+0  00000+0 0  9998
2 43564  57.2228  16.9042 0005107 265.1104  94.9013  1.70475944 26964
